STARLINK-3677           
1 51970U 22025Q   26068.29984043 -.00000007  00000+0  18441-4 0  9993
2 51970  53.0566  32.6524 0001537  85.1631 274.9533 15.06401696220860
DISKSAT B               
1 67220U 25305B   26068.81497770  .00012481  00000+0  82401-3 0  9990
2 67220  45.0018 250.2098 0003783 311.4052  48.6498 15.07484556 12311
